ONEWEB-0603             
1 54667U 22166AB  24095.86532440 -.00000212  00000+0 -54600-3 0  9991
2 54667  87.9295  43.8650 0002464  70.5747 289.5653 13.21827167 65357
ONEWEB-0604             
1 54668U 22166AC  24096.15547983  .00000013  00000+0  21388-6 0  9990
2 54668  87.9289  43.7922 0001759  70.0913 290.0410 13.21824567 65829
ONEWEB-0605             
1 54669U 22166AD  24096.14918254  .00000021  00000+0  19244-4 0  9998
2 54669  87.9288  43.8269 0002621  77.4322 282.7105 13.21825032 65892
ONEWEB-0606             
1 54670U 22166AE  24096.54972489 -.00000043  00000+0 -13574-3 0  9999
2 54670  87.9295  43.7334 0001805  84.7485 275.3855 13.21824032 65998
ONEWEB-0607             
1 54671U 22166AF  24095.91104929  .00000074  00000+0  14694-3 0  9992
2 54671  87.9291  43.8403 0002175  73.2796 286.8576 13.21824844 65428
ONEWEB-0608             
1 54672U 22166AG  24096.14444789  .00000013  00000+0  83420-6 0  9999
2 54672  87.9297  43.8113 0002558  73.6914 286.4501 13.21824765 65925
ONEWEB-0610             
1 54673U 22166AH  24096.35262700  .00000060  00000+0  11438-3 0  9993
2 54673  87.9292  43.7685 0002434  75.5182 284.6222 13.21825629 65868
ONEWEB-0611             
1 54674U 22166AJ  24096.42200331  .00000021  00000+0  19368-4 0  9992
2 54674  87.9291  43.7540 0001548  84.2514 275.8797 13.21824961 65866
